ARABSAT-7B (BADR-8)     
1 56757U 23075A   25177.50396418  .00000139  00000+0  00000+0 0  9996
2 56757   0.0737  28.2516 0004096 356.7314  97.3103  1.00270226  7562
NVS-01 (IRNSS-1J)       
1 56759U 23076A   25177.58843501 -.00000339  00000+0  00000+0 0  9990
2 56759   3.0405 256.8399 0003435   6.7291 352.7494  1.00274538  7548
NUSANTARA TIGA (SATRIA) 
1 57045U 23086A   25177.59924703 -.00000241  00000+0  00000+0 0  9997
2 57045   0.0334 336.9401 0002779   2.4430 297.2921  1.00268198  6190
H2SAT (HEINRICH HERTZ)  
1 57213U 23093A   25177.44004833  .00000019  00000+0  00000+0 0  9991
2 57213   0.0181 123.7720 0000303 137.1912 235.3378  1.00269776  7356
SYRACUSE 4B             
1 57214U 23093B   25177.56892240 -.00000060  00000+0  00000+0 0  9999
2 57214   0.0182  31.9072 0000391 220.5541 220.7186  1.00270143  3395
JUPITER 3 (ECHOSTAR 24) 
1 57479U 23108A   25176.50375323 -.00000152  00000+0  00000+0 0  9992
2 57479   0.0247  23.2789 0001473  74.9040 261.8338  1.00270031  7076
GALAXY 37 (G-37)        
1 57493U 23112A   25177.54511715  .00000043  00000+0  00000+0 0  9993
2 57493   0.0136  38.8313 0001707  54.2166 251.1016  1.00270889  6978
LUDI TANCE-4 01A        
1 57624U 23120A   25177.51682247 -.00000176  00000+0  00000+0 0  9992
2 57624  15.3751 202.7115 0000618 211.0455 136.8410  1.00271939  6976
TJS-10                  
1 58204U 23169A   25177.72003946 -.00000004  00000+0  00000+0 0  9996
2 58204   1.6266  84.8678 0001458 163.3335  99.1247  1.00274803  6109
ZHONGXING-6E            
1 58253U 23172A   25177.63965368 -.00000367  00000+0  00000+0 0  9991
2 58253   0.0430 263.6356 0002636  48.8832 308.2182  1.00266262  6097
YAOGAN-41               
1 58582U 23197A   25177.64269837 -.00000364  00000+0  00000+0 0  9999
2 58582   3.8145 309.1129 0016730 185.2986 135.0988  1.00275630  5757
OVZON-3                 
1 58698U 24003A   25177.51074084  .00000046  00000+0  00000+0 0  9994
2 58698   0.0144  20.9429 0000241 250.7526 246.7395  1.00271875  3872
INSAT-3DS               
1 58990U 24033A   25177.60570645 -.00000161  00000+0  00000+0 0  9995
2 58990   0.0627  95.0399 0000918   0.1924 119.8507  1.00270738 43508
MERAH PUTIH 2           
1 58995U 24035A   25177.23567559 -.00000362  00000+0  00000+0 0  9994
2 58995   0.0169   4.6014 0000997  81.8438  25.9364  1.00269657  5028
TJS-11                  
1 59020U 24037A   25177.73921361 -.00000370  00000+0  00000+0 0  9995
2 59020   4.7091 323.4136 0002880 171.0965 166.9077  1.00275872  5045
HULIANWAN GAOGUI-01 (H*)
1 59069U 24040A   25177.25392109  .00000151  00000+0  00000+0 0  9997
2 59069   0.0257 333.0202 0002085  42.8321  23.7991  1.00269534  3759
EUTELSAT 36D            
1 59346U 24059A   25177.57737649  .00000150  00000+0  00000+0 0  9991
2 59346   0.0174 345.3400 0000221 234.3252 298.9752  1.00269416  4584
PAKSAT-MM1              
1 59915U 24104A   25177.57789778  .00000148  00000+0  00000+0 0  9991
2 59915   0.0343 252.0246 0001532 184.8036  84.3510  1.00272619  3960
ASTRA 1P (SES-24)       
1 60086U 24115A   25177.50274785  .00000115  00000+0  00000+0 0  9998
2 60086   0.0689 325.7485 0001727  69.0580  80.2345  1.00269680  3630
GOES 19                 
1 60133U 24119A   25177.55536906 -.00000253  00000+0  00000+0 0  9990
2 60133   0.0421 140.2065 0000319  86.0938 173.3449  1.00270676  3392
ZHONGXING-3A            
1 60179U 24122A   25176.88423480 -.00000317  00000+0  00000+0 0  9992
2 60179   0.0554 109.8380 0002323 116.9674 107.3271  1.00272023  3733
TURKSAT 6A              
1 60233U 24127A   25177.57867970  .00000141  00000+0  00000+0 0  9995
2 60233   0.0633 204.5297 0002039 309.6084  11.1436  1.00271643  3453
HULIANWAN GAOGUI-02 (H*)
1 60327U 24135A   25176.95976964 -.00000177  00000+0  00000+0 0  9993
2 60327   0.0323  96.5637 0001016 290.5828  25.8552  1.00272399  3920
ZHONGXING-4A            
1 60606U 24151A   25177.64106810 -.00000366  00000+0  00000+0 0  9993
2 60606   2.2319 274.7761 0001252 177.0145 172.2216  1.00272234  3180
HULIANWAN GAOGUI-03 (H*)
1 61503U 24181A   25177.05532586 -.00000244  00000+0  00000+0 0  9996
2 61503   0.0251 105.9090 0001015 271.1767 200.0316  1.00270999  3256
DSN-3 (KIRAMEKI-3)      
1 61733U 24198A   25177.59558396 -.00000255  00000+0  00000+0 0  9997
2 61733   0.0177  18.0927 0000994  74.6443 180.6699  1.00272176  2359
KOREASAT 6A             
1 61910U 24206A   25177.63965367 -.00000367  00000+0  00000+0 0  9993
2 61910   0.0165  47.3269 0000888  57.6085 156.3501  1.00267919  2274
OPTUS-X (ADS-01)        
1 62006U 24212A   25177.63488784 -.00000333  00000+0  00000+0 0  9993
2 62006   0.0175  58.8499 0000715  16.2393 172.6380  1.00269124  2193
GSAT-N2 (GSAT-20)       
1 62028U 24214A   25177.22681380 -.00000024  00000+0  00000+0 0  9998
2 62028   0.0494 248.2971 0002788 152.9830  22.9141  1.00272419  2325
SXM-9                   
1 62259U 24234A   25176.50364160 -.00000207  00000+0  00000+0 0  9993
2 62259   0.0160 335.3861 0005655 348.9644  45.6842  1.00271617  2007
TJS-12                  
1 62374U 24246A   25177.59933390 -.00000235  00000+0  00000+0 0  9992
2 62374   1.5237 285.5298 0002308 125.1710 226.5297  1.00272995  1998
SHIJIAN-25 (SJ-25)      
1 62485U 25002A   25177.74477323 -.00000366  00000+0  00000+0 0  9997
2 62485  10.5097  42.4308 0063763 184.5164  83.8166  1.00262481  1809
TJS-14                  
1 62804U 25017A   25177.57390128  .00000111  00000+0  00000+0 0  9993
2 62804   1.6439 285.2753 0001402 276.0052 298.5944  1.00270725  1709
QZS-6 (MICHIBIKI-6)     
1 62876U 25023A   25177.62545833 -.00000238  00000+0  00000+0 0  9991
2 62876   0.0409   6.5144 0001918  85.5197 138.5857  1.00268329  1399
ZHONGXING-10R           
1 63075U 25036A   25177.63777841 -.00000358  00000+0  00000+0 0  9997
2 63075   0.0831 259.3537 0004127 239.5804 116.1496  1.00275197  1364
TJS-15                  
1 63157U 25045A   25177.76182105 -.00000236  00000+0  00000+0 0  9990
2 63157   0.2766  91.9946 0003597  84.1172 103.5623  1.00269135  1200
TIANLIAN 2-04           
1 63361U 25062A   25177.36016874 -.00000136  00000+0  00000+0 0  9990
2 63361   5.2871 279.2671 0030054 358.9309 206.2979  1.00271432  1036
TJS-16                  
1 63397U 25064A   25177.70354641 -.00000184  00000+0  00000+0 0  9999
2 63397   0.1858  72.9842 0002177  76.6415 171.2344  1.00271734  1121
TJS-17                  
1 63524U 25073A   25177.71477904 -.00000181  00000+0  00000+0 0  9997
2 63524   0.1482  78.1535 0001950  88.9235 158.1566  1.00272363   923
TIANLIAN 2-05           
1 63662U 25084A   25177.57433568  .00000122  00000+0  00000+0 0  9998
2 63662   5.3507 283.7855 0001143 180.4859  37.7840  1.00268177   817
